{
  "type": "FeatureCollection",
  "features": [
    {
      "type": "Feature",
      "properties": {
        "norad_id": 35744,
        "name": "IRIDIUM 33 DEB",
        "group": "iridium-33-debris",
        "lat": 85.13957485383742,
        "lon": 12.375012414180228,
        "alt_km": 649.7996249146408,
        "timestamp": "2025-12-17T09:00:17.533603+00:00",
        "meta_object_name": "IRIDIUM 33 DEB",
        "meta_object_id": "1997-051RX",
        "meta_epoch": "2025-12-16T16:17:06.614592",
        "meta_mean_motion": 14.71049556,
        "meta_eccentricity": 0.00205626,
        "meta_inclination": 86.3286,
        "meta_ra_of_asc_node": 323.6565,
        "meta_arg_of_pericenter": 177.5986,
        "meta_mean_anomaly": 182.5332,
        "meta_ephemeris_type": 0,
        "meta_classification_type": "U",
        "meta_norad_cat_id": 35744,
        "meta_element_set_no": 999,
        "meta_rev_at_epoch": 87389,
        "meta_bstar": 0.00086760641,
        "meta_mean_motion_dot": 5.368e-05,
        "meta_mean_motion_ddot": 0,
        "tle_line1": "1 35744U 97051RX  25350.67854878  .00005368  00000+0  86761-3 0  9995",
        "tle_line2": "2 35744  86.3286 323.6565 0020562 177.5986 182.5332 14.71049556873897"
      },
      "geometry": {
        "type": "Point",
        "coordinates": [
          12.375012414180228,
          85.13957485383742
        ]
      }
    },
    {
      "type": "Feature",
      "properties": {
        "norad_id": 35797,
        "name": "IRIDIUM 33 DEB",
        "group": "iridium-33-debris",
        "lat": 11.843529057923408,
        "lon": -31.386169421980608,
        "alt_km": 626.0454862988681,
        "timestamp": "2025-12-17T09:00:17.533619+00:00",
        "meta_object_name": "IRIDIUM 33 DEB",
        "meta_object_id": "1997-051SF",
        "meta_epoch": "2025-12-12T05:51:50.415264",
        "meta_mean_motion": 14.82743783,
        "meta_eccentricity": 0.00133704,
        "meta_inclination": 86.3362,
        "meta_ra_of_asc_node": 330.2007,
        "meta_arg_of_pericenter": 149.5686,
        "meta_mean_anomaly": 210.6315,
        "meta_ephemeris_type": 0,
        "meta_classification_type": "U",
        "meta_norad_cat_id": 35797,
        "meta_element_set_no": 999,
        "meta_rev_at_epoch": 87333,
        "meta_bstar": 0.0026694194,
        "meta_mean_motion_dot": 0.00021655,
        "meta_mean_motion_ddot": 0,
        "tle_line1": "1 35797U 97051SF  25346.24433351  .00021655  00000+0  26694-2 0  9995",
        "tle_line2": "2 35797  86.3362 330.2007 0013370 149.5686 210.6315 14.82743783873338"
      },
      "geometry": {
        "type": "Point",
        "coordinates": [
          -31.386169421980608,
          11.843529057923408
        ]
      }
    },
    {
      "type": "Feature",
      "properties": {
        "norad_id": 35806,
        "name": "IRIDIUM 33 DEB",
        "group": "iridium-33-debris",
        "lat": -72.8725576700163,
        "lon": -149.43893381977148,
        "alt_km": 719.9936897851103,
        "timestamp": "2025-12-17T09:00:17.533635+00:00",
        "meta_object_name": "IRIDIUM 33 DEB",
        "meta_object_id": "1997-051SQ",
        "meta_epoch": "2025-12-16T08:46:37.248096",
        "meta_mean_motion": 14.57379748,
        "meta_eccentricity": 0.00158634,
        "meta_inclination": 86.3444,
        "meta_ra_of_asc_node": 19.032,
        "meta_arg_of_pericenter": 64.1996,
        "meta_mean_anomaly": 296.0847,
        "meta_ephemeris_type": 0,
        "meta_classification_type": "U",
        "meta_norad_cat_id": 35806,
        "meta_element_set_no": 999,
        "meta_rev_at_epoch": 86377,
        "meta_bstar": 0.00073764812,
        "meta_mean_motion_dot": 3.369e-05,
        "meta_mean_motion_ddot": 0,
        "tle_line1": "1 35806U 97051SQ  25350.36570889  .00003369  00000+0  73765-3 0  9996",
        "tle_line2": "2 35806  86.3444  19.0320 0015863  64.1996 296.0847 14.57379748863778"
      },
      "geometry": {
        "type": "Point",
        "coordinates": [
          -149.43893381977148,
          -72.8725576700163
        ]
      }
    },
    {
      "type": "Feature",
      "properties": {
        "norad_id": 35809,
        "name": "IRIDIUM 33 DEB",
        "group": "iridium-33-debris",
        "lat": -24.58556334204544,
        "lon": 154.92281117949466,
        "alt_km": 641.7994666597824,
        "timestamp": "2025-12-17T09:00:17.533652+00:00",
        "meta_object_name": "IRIDIUM 33 DEB",
        "meta_object_id": "1997-051ST",
        "meta_epoch": "2025-12-10T16:35:56.421600",
        "meta_mean_motion": 14.75629145,
        "meta_eccentricity": 0.00097103,
        "meta_inclination": 86.329,
        "meta_ra_of_asc_node": 336.2813,
        "meta_arg_of_pericenter": 251.0565,
        "meta_mean_anomaly": 108.9602,
        "meta_ephemeris_type": 0,
        "meta_classification_type": "U",
        "meta_norad_cat_id": 35809,
        "meta_element_set_no": 999,
        "meta_rev_at_epoch": 86777,
        "meta_bstar": 0.0026432017,
        "meta_mean_motion_dot": 0.00018102,
        "meta_mean_motion_ddot": 0,
        "tle_line1": "1 35809U 97051ST  25344.69162525  .00018102  00000+0  26432-2 0  9991",
        "tle_line2": "2 35809  86.3290 336.2813 0009710 251.0565 108.9602 14.75629145867777"
      },
      "geometry": {
        "type": "Point",
        "coordinates": [
          154.92281117949466,
          -24.58556334204544
        ]
      }
    },
    {
      "type": "Feature",
      "properties": {
        "norad_id": 35846,
        "name": "IRIDIUM 33 DEB",
        "group": "iridium-33-debris",
        "lat": 17.450378668362116,
        "lon": -124.27897536685825,
        "alt_km": 735.1410859305197,
        "timestamp": "2025-12-17T09:00:17.533668+00:00",
        "meta_object_name": "IRIDIUM 33 DEB",
        "meta_object_id": "1997-051SW",
        "meta_epoch": "2025-12-13T22:42:58.027680",
        "meta_mean_motion": 14.43166074,
        "meta_eccentricity": 0.00189778,
        "meta_inclination": 86.3748,
        "meta_ra_of_asc_node": 58.3258,
        "meta_arg_of_pericenter": 166.0798,
        "meta_mean_anomaly": 194.093,
        "meta_ephemeris_type": 0,
        "meta_classification_type": "U",
        "meta_norad_cat_id": 35846,
        "meta_element_set_no": 999,
        "meta_rev_at_epoch": 71346,
        "meta_bstar": 0.00070076496,
        "meta_mean_motion_dot": 2.378e-05,
        "meta_mean_motion_ddot": 0,
        "tle_line1": "1 35846U 97051SW  25347.94650495  .00002378  00000+0  70076-3 0  9993",
        "tle_line2": "2 35846  86.3748  58.3258 0018977 166.0798 194.0930 14.43166074713467"
      },
      "geometry": {
        "type": "Point",
        "coordinates": [
          -124.27897536685825,
          17.450378668362116
        ]
      }
    },
    {
      "type": "Feature",
      "properties": {
        "norad_id": 35848,
        "name": "IRIDIUM 33 DEB",
        "group": "iridium-33-debris",
        "lat": -25.65532545012495,
        "lon": -164.22232837730752,
        "alt_km": 634.220722166795,
        "timestamp": "2025-12-17T09:00:17.533684+00:00",
        "meta_object_name": "IRIDIUM 33 DEB",
        "meta_object_id": "1997-051SY",
        "meta_epoch": "2025-12-16T19:05:07.807200",
        "meta_mean_motion": 14.78723023,
        "meta_eccentricity": 0.00083075,
        "meta_inclination": 86.3897,
        "meta_ra_of_asc_node": 14.3007,
        "meta_arg_of_pericenter": 174.3439,
        "meta_mean_anomaly": 185.7876,
        "meta_ephemeris_type": 0,
        "meta_classification_type": "U",
        "meta_norad_cat_id": 35848,
        "meta_element_set_no": 999,
        "meta_rev_at_epoch": 66750,
        "meta_bstar": 0.0011327955,
        "meta_mean_motion_dot": 8.343e-05,
        "meta_mean_motion_ddot": 0,
        "tle_line1": "1 35848U 97051SY  25350.79522925  .00008343  00000+0  11328-2 0  9990",
        "tle_line2": "2 35848  86.3897  14.3007 0008307 174.3439 185.7876 14.78723023667508"
      },
      "geometry": {
        "type": "Point",
        "coordinates": [
          -164.22232837730752,
          -25.65532545012495
        ]
      }
    },
    {
      "type": "Feature",
      "properties": {
        "norad_id": 35850,
        "name": "IRIDIUM 33 DEB",
        "group": "iridium-33-debris",
        "lat": 6.008902947338145,
        "lon": 161.75291776670346,
        "alt_km": 628.331812653294,
        "timestamp": "2025-12-17T09:00:17.533700+00:00",
        "meta_object_name": "IRIDIUM 33 DEB",
        "meta_object_id": "1997-051TA",
        "meta_epoch": "2025-12-15T17:14:52.406304",
        "meta_mean_motion": 14.78892383,
        "meta_eccentricity": 0.00096156,
        "meta_inclination": 86.3495,
        "meta_ra_of_asc_node": 342.8914,
        "meta_arg_of_pericenter": 173.8834,
        "meta_mean_anomaly": 186.2505,
        "meta_ephemeris_type": 0,
        "meta_classification_type": "U",
        "meta_norad_cat_id": 35850,
        "meta_element_set_no": 999,
        "meta_rev_at_epoch": 71401,
        "meta_bstar": 0.0010045188,
        "meta_mean_motion_dot": 7.431e-05,
        "meta_mean_motion_ddot": 0,
        "tle_line1": "1 35850U 97051TA  25349.71866211  .00007431  00000+0  10045-2 0  9994",
        "tle_line2": "2 35850  86.3495 342.8914 0009615 173.8834 186.2505 14.78892383714017"
      },
      "geometry": {
        "type": "Point",
        "coordinates": [
          161.75291776670346,
          6.008902947338145
        ]
      }
    }
  ]
}